      2.10          N: GNSS NAV DATA                        RINEX VERSION / TYPE
fic2rin                                 10/14/2020 00:17:46 PGM / RUN BY / DATE
                                                            END OF HEADER
 6 20 10 13 12  0  0.0-3.328649327159e-04-2.501110429876e-12 0.000000000000e+00
    8.100000000000e+01 6.231250000000e+01 4.487329772440e-09 2.826770860136e+00
    3.371387720108e-06 1.858704839833e-03 4.034489393234e-06 5.153629364014e+03
    2.160000000000e+05 7.078051567078e-08 5.615143698988e-01-5.587935447693e-09
    9.813765238942e-01 3.117500000000e+02-1.149548268580e+00-8.270344493045e-09
    3.653723620826e-10 1.000000000000e+00 2.127000000000e+03 0.000000000000e+00
    2.400000000000e+00 0.000000000000e+00 4.190951585770e-09 8.100000000000e+01
    2.088000000000e+05 4.000000000000e+00
 8 20 10 13 12  0  0.0-5.130516365170e-05-1.364242052659e-12 0.000000000000e+00
    4.600000000000e+01 4.762500000000e+01 4.147672767219e-09-1.548175225998e+00
    2.209097146988e-06 5.568980006501e-03 1.131556928158e-05 5.153735740662e+03
    2.160000000000e+05-2.980232238770e-08-5.011662517689e-01-8.009374141693e-08
    9.691797969716e-01 1.674687500000e+02-6.774402921645e-02-7.808539542729e-09
    7.464596644698e-11 1.000000000000e+00 2.127000000000e+03 0.000000000000e+00
    2.400000000000e+00 0.000000000000e+00 5.122274160385e-09 4.600000000000e+01
    2.088000000000e+05 4.000000000000e+00
31 20 10 13 12  0  0.0-7.467018440366e-05-2.387423592154e-12 0.000000000000e+00
    9.000000000000e+00 6.115625000000e+01 4.818414992039e-09 1.400318711615e+00
    3.423541784286e-06 9.760871645994e-03 6.133690476418e-06 5.153670013428e+03
    2.160000000000e+05-3.166496753693e-08-2.553823866386e+00 1.247972249985e-07
    9.571270504463e-01 2.593437500000e+02 1.730428478835e-01-8.327846888250e-09
    2.164375869228e-10 1.000000000000e+00 2.127000000000e+03 0.000000000000e+00
    2.400000000000e+00 0.000000000000e+00-1.303851604462e-08 9.000000000000e+00
    2.088000000000e+05 4.000000000000e+00
28 20 10 13 12  0  0.0 6.681894883513e-04-4.320099833421e-12 0.000000000000e+00
    1.900000000000e+01-2.615625000000e+01 4.414112436929e-09-9.218979394010e-01
   -1.307576894760e-06 1.843071402982e-02 8.231028914452e-06 5.153663084030e+03
    2.160000000000e+05-2.644956111908e-07-1.438987292282e+00 6.332993507385e-08
    9.754076923199e-01 2.354687500000e+02-1.389275401971e+00-8.300345742717e-09
   -3.796586714504e-10 1.000000000000e+00 2.127000000000e+03 0.000000000000e+00
    2.400000000000e+00 0.000000000000e+00-1.117587089539e-08 1.900000000000e+01
    2.088000000000e+05 4.000000000000e+00
17 20 10 13 12  0  0.0 3.392216749489e-04 5.229594535194e-12 0.000000000000e+00
    1.300000000000e+01 7.125000000000e+01 3.803729869188e-09-1.810187417663e+00
    3.876164555550e-06 1.352521718945e-02 1.219660043716e-05 5.153774738312e+03
    2.160000000000e+05 1.881271600723e-07-4.265132539890e-01 2.551823854446e-07
    9.836995090673e-01 1.529375000000e+02-1.631926390730e+00-7.549243027703e-09
    1.046472161195e-10 1.000000000000e+00 2.127000000000e+03 0.000000000000e+00
    2.400000000000e+00 0.000000000000e+00-1.117587089539e-08 1.300000000000e+01
    2.088000000000e+05 4.000000000000e+00
15 20 10 13 12  0  0.0-1.972503960133e-04 2.614797267597e-12 0.000000000000e+00
    3.200000000000e+01-5.846875000000e+01 4.886632119271e-09-2.582330372928e+00
   -3.041699528694e-06 1.291546982247e-02 1.224316656590e-05 5.153768175125e+03
    2.160000000000e+05 1.639127731323e-07 2.547153883046e+00-9.872019290924e-08
    9.287575125355e-01 1.241562500000e+02 9.315331728386e-01-7.975332204599e-09
    8.214627886510e-11 1.000000000000e+00 2.127000000000e+03 0.000000000000e+00
    2.400000000000e+00 0.000000000000e+00-1.071020960808e-08 3.200000000000e+01
    2.088000000000e+05 4.000000000000e+00
16 20 10 13 12  0  0.0-2.218261361122e-04-5.229594535194e-12 0.000000000000e+00
    1.140000000000e+02-3.471875000000e+01 4.288035756758e-09-7.954004327407e-01
   -1.622363924980e-06 1.161240495276e-02 7.193535566330e-06 5.153583509445e+03
    2.160000000000e+05 1.993030309677e-07-1.442637487939e+00 1.899898052216e-07
    9.763600870995e-01 2.452500000000e+02 6.292783840391e-01-8.090694152744e-09
   -4.393040130612e-10 1.000000000000e+00 2.127000000000e+03 0.000000000000e+00
    2.400000000000e+00 0.000000000000e+00-1.071020960808e-08 1.140000000000e+02
    2.088000000000e+05 4.000000000000e+00
10 20 10 13 12  0  0.0-4.786024801433e-04-9.549694368616e-12 0.000000000000e+00
    9.300000000000e+01-8.887500000000e+01 4.674837582893e-09 4.343557456888e-01
   -4.643574357033e-06 5.983886076137e-03 4.988163709641e-06 5.153671392441e+03
    2.160000000000e+05-5.587935447693e-09 1.606526934935e+00 5.587935447693e-09
    9.665193414672e-01 2.837500000000e+02-2.662255847425e+00-8.414993375394e-09
   -4.350181202508e-10 1.000000000000e+00 2.127000000000e+03 0.000000000000e+00
    2.400000000000e+00 0.000000000000e+00 2.328306436539e-09 9.300000000000e+01
    2.088000000000e+05 4.000000000000e+00
11 20 10 13 12  0  0.0-1.381547190249e-04 1.057287590811e-11 0.000000000000e+00
    9.000000000000e+01 9.671875000000e+01 5.553802766749e-09 1.882870169077e+00
    4.932284355164e-06 1.578446873464e-02 6.807968020439e-06 5.153723047256e+03
    2.160000000000e+05 3.110617399216e-07 8.638852514883e-02 5.774199962616e-08
    9.138775334561e-01 2.189687500000e+02 2.056548742641e+00-8.445351782801e-09
    2.775115594704e-10 1.000000000000e+00 2.127000000000e+03 0.000000000000e+00
    2.400000000000e+00 0.000000000000e+00-1.210719347000e-08 9.000000000000e+01
    2.088000000000e+05 4.000000000000e+00
29 20 10 13 12  0  0.0-2.146284095943e-04-7.958078640513e-12 0.000000000000e+00
    8.000000000000e+01 4.018750000000e+01 3.826945121911e-09-1.641346803425e+00
    2.171844244003e-06 1.555302646011e-03 1.216679811478e-05 5.153741802216e+03
    2.160000000000e+05-1.676380634308e-08-4.145173549974e-01 1.862645149231e-09
    9.854409755264e-01 1.633750000000e+02 2.260979758951e+00-7.643532669530e-09
    9.964700784071e-11 1.000000000000e+00 2.127000000000e+03 0.000000000000e+00
    2.400000000000e+00 0.000000000000e+00-1.024454832077e-08 8.000000000000e+01
    2.088000000000e+05 4.000000000000e+00
24 20 10 13 12  0  0.0-1.970957964659e-05-4.547473508865e-13 0.000000000000e+00
    6.500000000000e+01 6.600000000000e+01 5.182001565451e-09 2.745999564441e+00
    3.349035978317e-06 1.025792909786e-02 6.979331374168e-06 5.153630853653e+03
    2.160000000000e+05-3.539025783539e-08-2.644429754679e+00-1.620501279831e-07
    9.361296863133e-01 2.310937500000e+02 6.834643474334e-01-8.319632260364e-09
    4.610906348471e-10 1.000000000000e+00 2.127000000000e+03 0.000000000000e+00
    2.400000000000e+00 0.000000000000e+00 2.793967723846e-09 6.500000000000e+01
    2.088000000000e+05 4.000000000000e+00
30 20 10 13 12  0  0.0-3.191353753209e-04-6.934897101019e-12 0.000000000000e+00
    9.800000000000e+01 5.371875000000e+01 5.338436653029e-09 1.725654832313e+00
    2.851709723473e-06 4.761680611409e-03 5.980953574181e-06 5.153573904037e+03
    2.160000000000e+05-5.960464477539e-08-2.549388189051e+00 3.725290298462e-09
    9.380092449244e-01 2.533437500000e+02-2.808210230371e+00-8.515354698703e-09
    2.750114553310e-10 1.000000000000e+00 2.127000000000e+03 0.000000000000e+00
    2.400000000000e+00 0.000000000000e+00 3.725290298462e-09 9.800000000000e+01
    2.088000000000e+05 4.000000000000e+00
27 20 10 13 12  0  0.0-4.174434579909e-04-8.640199666843e-12 0.000000000000e+00
    8.700000000000e+01 5.050000000000e+01 3.946592962867e-09-1.676196731956e+00
    2.438202500343e-06 8.416283526458e-03 1.125223934650e-05 5.153674852371e+03
    2.160000000000e+05 8.754432201385e-08-4.857655689429e-01-1.210719347000e-07
    9.776738343481e-01 1.708125000000e+02 5.720722335848e-01-7.649961508746e-09
    9.178953768839e-11 1.000000000000e+00 2.127000000000e+03 0.000000000000e+00
    3.400000000000e+00 0.000000000000e+00 1.862645149231e-09 8.700000000000e+01
    2.088000000000e+05 4.000000000000e+00
22 20 10 13 12  0  0.0-7.438058964908e-04 4.547473508865e-12 0.000000000000e+00
    4.900000000000e+01-9.175000000000e+01 5.426654613375e-09-2.675129511893e+00
   -4.723668098450e-06 6.722154095769e-03 4.379078745842e-06 5.153709541321e+03
    2.160000000000e+05-3.539025783539e-08 1.518050559436e+00 1.322478055954e-07
    9.318060597254e-01 2.761875000000e+02-1.081711063185e+00-8.575357198048e-09
   -3.121558596874e-10 1.000000000000e+00 2.127000000000e+03 0.000000000000e+00
    2.400000000000e+00 0.000000000000e+00-1.816079020500e-08 4.900000000000e+01
    2.088000000000e+05 4.000000000000e+00
20 20 10 13 12  0  0.0 5.264123901725e-04-1.136868377216e-13 0.000000000000e+00
    2.800000000000e+01-8.287500000000e+01 5.502014895291e-09 1.915780206793e+00
   -4.196539521217e-06 5.715368664823e-03 3.334134817123e-06 5.153663335800e+03
    2.160000000000e+05 1.229345798492e-07 1.471020886999e+00 2.421438694000e-08
    9.351088459854e-01 3.011562500000e+02 2.726108817375e+00-8.770008163185e-09
   -3.589435228671e-10 1.000000000000e+00 2.127000000000e+03 0.000000000000e+00
    2.400000000000e+00 0.000000000000e+00-8.847564458847e-09 2.800000000000e+01
    2.088000000000e+05 4.000000000000e+00
19 20 10 13 12  0  0.0-9.236577898264e-05 5.002220859751e-12 0.000000000000e+00
    6.200000000000e+01 6.118750000000e+01 3.904805507966e-09 7.911251746133e-01
    3.157183527946e-06 9.111294406466e-03 1.213885843754e-05 5.153602390289e+03
    2.160000000000e+05-1.061707735062e-07-3.811136570393e-01-8.195638656616e-08
    9.820370504250e-01 1.584062500000e+02 1.733957812589e+00-7.866041937935e-09
    1.100045821324e-10 1.000000000000e+00 2.127000000000e+03 0.000000000000e+00
    3.400000000000e+00 0.000000000000e+00-1.536682248116e-08 6.200000000000e+01
    2.088000000000e+05 4.000000000000e+00
